#dP2024 11  5  0  0  0.00000000      96 __u+U IGS20 FIT  IAC
## 2339 172800.00000000   900.00000000 60619 0.0000000000000
+   52   G02G03G04G05G06G07G08G09G10G11G12G13G14G15G16G17G18
+        G19G20G21G22G23G24G25G26G27G28G29G30G31G32R01R02R03
+        R04R05R07R08R09R11R12R14R15R16R17R18R19R20R21R22R24
+        R26  0  0  0  0  0  0  0  0  0  0  0  0  0  0  0  0
+          0  0  0  0  0  0  0  0  0  0  0  0  0  0  0  0  0
++         5  5  5  6  5  5  6  5  5  5  6  6  7  5  7  6  5
++         6  6  7  6  5  5  7  7  7  7  6  6  6  5  6  7  6
++         7  6  6  6  6  7  6  7  8  8  6  7  7  7  7  7  6
++         5  0  0  0  0  0  0  0  0  0  0  0  0  0  0  0  0
++         0  0  0  0  0  0  0  0  0  0  0  0  0  0  0  0  0
%c M  cc GPS ccc cccc cccc cccc cccc ccccc ccccc ccccc ccccc
%c cc cc ccc ccc cccc cccc cccc cccc ccccc ccccc ccccc ccccc
%f  0.0000000  0.000000000  0.00000000000  0.000000000000000
%f  0.0000000  0.000000000  0.00000000000  0.000000000000000
%i    0    0    0    0      0      0      0      0         0
%i    0    0    0    0      0      0      0      0         0
/* INFORMATION & ANALYSIS CENTER (IAC)      ULTRA-RAPID DATA
/* S/V CLOCKS ARE ALIGNED TO GNSS TIME                      
/* G:C1WC2W R:C1PC2P E:C1XC5X C:C2IC6I J:C1CC2S             
/* PCV:IGS20_2317 OL/AL:FES2004  NONE     YN ORB:CoN CLK:CoN
*  2024 11 05 23 30  0.00000000
PG02  13268.792923 -21876.276730  -5928.141041   -321.069012
PG03   4422.007764 -14038.058297 -22273.058623    591.799606
PG04   1800.326008 -24340.370310 -10277.286504    474.487552
PG05 -20020.696247   6673.130364  15988.237319   -192.094859
PG06 -17332.744584  -1631.722359 -20022.941021    -92.519631
PG07  -1410.264393 -18292.299196  19576.688803    -22.004131
PG08   9004.331377 -16273.199592  18674.071519    405.556137
PG09  -6463.912273 -25692.419137  -1359.313182    430.726821
PG10  23819.604618  10698.523660   5992.426085   -184.928873
PG11 -22127.134490  10394.972123 -10263.963758   -748.664466
PG12  -9680.773490  12563.862788 -21581.491688   -550.128692
PG13 -13610.034210   7883.306369  21131.578281    684.777600
PG14 -21431.835306 -13131.047252   8983.150829    533.533182
PG15  -6519.345136  17904.530938  17921.189736    224.329822
PG16  23424.880540   -720.570843  12570.606276   -135.902863
PG17 -13067.411458 -18484.884681 -13315.962150    569.570826
PG18   2255.559996  16911.248274  20322.192583   -659.893786
PG19 -15322.482994  -9464.541325 -19806.810561    559.317092
PG20 -25795.906312   1833.864671   5780.504658    369.000287
PG21  16655.327945 -19913.175216    -41.454557     98.140886
PG22 -24326.499250 -10173.157850   1494.195595    -77.132589
PG23  13920.890334  15101.193915  17002.147402    357.144022
PG24 -13545.109085  22140.362035  -4953.614821   -481.792676
PG25   5564.867436  16504.792159 -20469.862807    499.192908
PG26  26435.941979   4046.814059   1068.734417     36.112108
PG27  14367.365277  -4673.252671  21537.927746    -34.744420
PG28  16393.046930   3621.835274 -20598.239075   -469.788590
PG29   3272.542855  26201.916125  -2199.910743   -565.969776
PG30 -11643.256407 -10749.741080  21467.846587   -287.848998
PG31  21703.009896  -6484.391878 -14405.037688   -222.252959
PG32  15144.378229  15765.131995 -15009.918173   -577.653672
PR01  -5990.230203   9912.918782  22722.107728    103.467292
PR02   6465.397642  20545.033491  13766.551856    -25.516093
PR03  15839.284896  19783.746965  -3160.388078    110.819226
PR04  15988.181745   8572.751402 -17919.249431    262.645988
PR05   7894.548511  -7317.739543 -23118.454058    140.261633
PR07 -15951.346748 -19513.142739   3761.303687     94.399305
PR08 -16063.655903  -8044.304351  18143.059373     -6.309027
PR09   2519.711752 -11610.217839  22581.885296    218.868947
PR11 -24796.956941   -272.838273   6022.848851      7.557642
PR12 -20140.000505   8359.743157 -13201.929061     46.899875
PR14  15423.213406   7535.450627 -18850.514375     27.170559
PR15  25145.666153   -439.119296  -4226.984720     74.390677
PR16  20215.110554  -8298.913765  13135.677628     30.552963
PR17   4851.978290  12913.131134  21460.183543    137.269283
PR18  12593.246540  -3160.709732  21970.326978    170.462402
PR19  14955.262382 -16141.427839  12919.105436   -297.435738
PR20   7856.163209 -22835.057389  -8150.360125   -121.512813
PR21  -4032.551240 -13797.223867 -21073.101626   -148.872267
PR22 -13403.693037   4011.970075 -21298.315421     -1.090649
PR24  -6275.146663  23175.142832   8605.170303    -78.953310
PR26 -16545.696055  -9516.295285  16946.046221   -115.889032
*  2024 11 05 23 45  0.00000000
PG02  13835.206716 -22160.180418  -3102.814237   -321.061269
PG03   6838.624225 -13428.680352 -22025.418358    591.809049
PG04   2341.408029 -23115.331203 -12718.090249    474.493441
PG05 -21694.296135   6195.134746  13888.176276   -192.095770
PG06 -15726.451706  -3358.032298 -21091.535277    -92.545461
PG07    129.172944 -19695.196012  18135.216071    -22.001926
PG08   9865.883294 -14192.338285  19927.160919    405.565597
PG09  -6119.558960 -25480.563299  -4193.094105    430.742004
PG10  23003.766517  10648.040028   8716.189459   -184.941593
PG11 -21321.096958   9328.129680 -12702.595145   -748.666274
PG12 -11924.922317  11798.709973 -20864.801136   -550.130975
PG13 -14025.661738   5420.562416  21644.389921    684.779165
PG14 -20247.843886 -13076.861714  11457.390719    533.540582
PG15  -7640.806736  15961.190392  19242.063717    224.334050
PG16  24629.510387   -115.170535  10160.326165   -135.894005
PG17 -13182.524166 -19950.160003 -10933.337690    569.557647
PG18    603.382857  18442.241951  19045.722798   -659.894360
PG19 -15625.106126 -11590.318250 -18417.957019    559.321415
PG20 -26275.556493   1534.039814   2984.177557    369.000041
PG21  16844.451797 -19606.524570   2873.140428     98.139374
PG22 -23960.904839 -10340.792330   4341.858040    -77.135517
PG23  11919.188981  14784.611832  18699.258218    357.151246
PG24 -14049.027512  22211.383121  -2168.565262   -481.790940
PG25   3288.218555  16076.876178 -21276.939102    499.192630
PG26  26372.102247   4350.894793  -1703.172484     36.100644
PG27  15117.875596  -2264.169397  21451.463610    -34.744352
PG28  14850.702584   5457.484870 -21349.885958   -469.799518
PG29   2952.199259  25851.377934  -5039.086101   -565.966966
PG30  -9960.113659 -12499.876742  21341.879017   -287.842048
PG31  20616.973978  -5150.319547 -16399.745520   -222.252687
PG32  15446.106105  17365.862673 -12825.833973   -577.649142
PR01  -7753.027752   7705.237498  23042.937438    103.469181
PR02   5477.928448  18984.873229  16216.955208    -25.515267
PR03  16093.272336  19838.264212     48.166839    110.820499
PR04  17328.862246  10168.156178 -15706.909990    262.647548
PR05   9591.720580  -5022.222995 -23091.833056    140.262759
PR07 -16238.070646 -19624.679914    550.800654     94.399555
PR08 -17418.075646  -9648.640307  15971.168336     -6.308624
PR09   5218.469147 -12067.506770  21860.874708    218.871436
PR11 -23857.647483   -261.358579   9055.973229      7.556773
PR12 -21575.808464   8664.495190 -10454.826290     46.900204
PR14  13010.158899   7817.750321 -20485.307631     27.170455
PR15  24420.316468   -469.494795  -7327.704719     74.390601
PR16  21634.934450  -8624.208933  10369.120456     30.553478
PR17   3920.267441  15298.988163  20030.007645    137.272038
PR18  11428.411303   -656.166721  22812.822979    170.464462
PR19  14039.830855 -14635.645769  15485.403230   -297.436561
PR20   8026.220076 -23661.341775  -5037.432899   -121.512754
PR21  -3114.207006 -16132.976655 -19515.870521   -148.875380
PR22 -12215.670455   1589.272321 -22305.481063     -1.101335
PR24  -6485.886343  24031.478639   5546.514594    -78.954931
PR26 -17826.372028 -10983.370495  14595.900927   -115.850579
EOF
